QIANFAN GROUP 7 OBJECT M
1 68647U 26075M   26105.60293881  .00001456  00000+0  60330-3 0  9992
2 68647  88.9914 327.7858 0014164 189.1392 170.9545 14.26073140  1146
