{
  "norad_id": 68647,
  "name": "QIANFAN GROUP 7 OBJECT M",
  "history": [
    {
      "epoch": "2026-04-15T14:28:13.913184Z",
      "apogee_km": 815.0611643688417,
      "perigee_km": 794.7125197870955,
      "latitude_deg": -8.377553503050996e-05,
      "longitude_deg": -93.03481259563173,
      "height_km": 817.9988837003567,
      "semi_major_axis_km": 7183.023842077968,
      "eccentricity": 0.00141644,
      "inclination_deg": 88.9914,
      "raan_deg": 327.7858,
      "arg_perigee_deg": 189.1392,
      "mean_anomaly_deg": 170.9545,
      "mean_motion_rev_day": 14.2607314
    }
  ]
}